{"type": "FeatureCollection", "features": [ {"type": "Feature", "properties": {"norad_id": 36402, "name": "COSMOS 2460 (732)", "group": "gnss", "lat": 19.559338142262607, "lon": 131.79409182242236, "alt_km": 19130.168084116536, "timestamp": "2025-12-02T17:49:12.269494+00:00", "meta": {"OBJECT_NAME": "COSMOS 2460 (732)", "OBJECT_ID": "2010-007C", "EPOCH": "2025-12-01T05:49:09.827040", "MEAN_MOTION": 2.13106053, "ECCENTRICITY": 0.00028009, "INCLINATION": 65.536, "RA_OF_ASC_NODE": 321.162, "ARG_OF_PERICENTER": 269.9918, "MEAN_ANOMALY": 177.6167, "EPHEMERIS_TYPE": 0, "CLASSIFICATION_TYPE": "U", "NORAD_CAT_ID": 36402, "ELEMENT_SET_NO": 999, "REV_AT_EPOCH": 12251, "BSTAR": 0, "MEAN_MOTION_DOT": -2.6e-07, "MEAN_MOTION_DDOT": 0}, "tle": {"line1": "1 36402U 10007C   25335.24247485 -.00000026  00000+0  00000+0 0  9994", "line2": "2 36402  65.5360 321.1620 0002800 269.9918 177.6167  2.13106053122518"}}, "geometry": {"type": "Point", "coordinates": [131.79409182242236, 19.559338142262607]}}, {"type": "Feature", "properties": {"norad_id": 36585, "name": "GPS BIIF-1  (PRN 25)", "group": "gnss", "lat": 10.459636175354166, "lon": 28.86368149180338, "alt_km": 20248.216222801195, "timestamp": "2025-12-02T17:49:12.269505+00:00", "meta": {"OBJECT_NAME": "GPS BIIF-1  (PRN 25)", "OBJECT_ID": "2010-022A", "EPOCH": "2025-12-02T06:20:52.766304", "MEAN_MOTION": 2.00552564, "ECCENTRICITY": 0.0125665, "INCLINATION": 54.3023, "RA_OF_ASC_NODE": 216.4964, "ARG_OF_PERICENTER": 64.9581, "MEAN_ANOMALY": 115.6293, "EPHEMERIS_TYPE": 0, "CLASSIFICATION_TYPE": "U", "NORAD_CAT_ID": 36585, "ELEMENT_SET_NO": 999, "REV_AT_EPOCH": 11364, "BSTAR": 0, "MEAN_MOTION_DOT": 6.7e-07, "MEAN_MOTION_DDOT": 0}, "tle": {"line1": "1 36585U 10022A   25336.26449961  .00000067  00000+0  00000+0 0  9993", "line2": "2 36585  54.3023 216.4964 0125665  64.9581 115.6293  2.00552564113647"}}, "geometry": {"type": "Point", "coordinates": [28.86368149180338, 10.459636175354166]}}, {"type": "Feature", "properties": {"norad_id": 36828, "name": "BEIDOU-2 IGSO-1 (C06)", "group": "gnss", "lat": -52.34733033894776, "lon": 95.69062142240459, "alt_km": 35703.93108539604, "timestamp": "2025-12-02T17:49:12.269518+00:00", "meta": {"OBJECT_NAME": "BEIDOU-2 IGSO-1 (C06)", "OBJECT_ID": "2010-036A", "EPOCH": "2025-12-01T10:54:26.819712", "MEAN_MOTION": 1.00279202, "ECCENTRICITY": 0.00512823, "INCLINATION": 54.2832, "RA_OF_ASC_NODE": 164.751, "ARG_OF_PERICENTER": 215.7518, "MEAN_ANOMALY": 321.3962, "EPHEMERIS_TYPE": 0, "CLASSIFICATION_TYPE": "U", "NORAD_CAT_ID": 36828, "ELEMENT_SET_NO": 999, "REV_AT_EPOCH": 5611, "BSTAR": 0, "MEAN_MOTION_DOT": -1.7e-07, "MEAN_MOTION_DDOT": 0}, "tle": {"line1": "1 36828U 10036A   25335.45447708 -.00000017  00000+0  00000+0 0  9991", "line2": "2 36828  54.2832 164.7510 0051282 215.7518 321.3962  1.00279202 56116"}}, "geometry": {"type": "Point", "coordinates": [95.69062142240459, -52.34733033894776]}}, {"type": "Feature", "properties": {"norad_id": 37210, "name": "BEIDOU-2 G4 (C04)", "group": "gnss", "lat": 2.9504682549489774, "lon": 139.05308718566044, "alt_km": 35807.92438759569, "timestamp": "2025-12-02T17:49:12.269530+00:00", "meta": {"OBJECT_NAME": "BEIDOU-2 G4 (C04)", "OBJECT_ID": "2010-057A", "EPOCH": "2025-12-02T10:49:38.522784", "MEAN_MOTION": 1.00271394, "ECCENTRICITY": 0.0010858, "INCLINATION": 3.157, "RA_OF_ASC_NODE": 69.9629, "ARG_OF_PERICENTER": 188.0022, "MEAN_ANOMALY": 136.0718, "EPHEMERIS_TYPE": 0, "CLASSIFICATION_TYPE": "U", "NORAD_CAT_ID": 37210, "ELEMENT_SET_NO": 999, "REV_AT_EPOCH": 5531, "BSTAR": 0, "MEAN_MOTION_DOT": -9.2e-07, "MEAN_MOTION_DDOT": 0}, "tle": {"line1": "1 37210U 10057A   25336.45114031 -.00000092  00000+0  00000+0 0  9994", "line2": "2 37210   3.1570  69.9629 0010858 188.0022 136.0718  1.00271394 55312"}}, "geometry": {"type": "Point", "coordinates": [139.05308718566044, 2.9504682549489774]}}, {"type": "Feature", "properties": {"norad_id": 37256, "name": "BEIDOU-2 IGSO-2 (C07)", "group": "gnss", "lat": 6.181571198919946, "lon": 88.62252046102284, "alt_km": 35632.778582285195, "timestamp": "2025-12-02T17:49:12.269542+00:00", "meta": {"OBJECT_NAME": "BEIDOU-2 IGSO-2 (C07)", "OBJECT_ID": "2010-068A", "EPOCH": "2025-11-30T14:15:56.539296", "MEAN_MOTION": 1.00290004, "ECCENTRICITY": 0.0049401, "INCLINATION": 47.9109, "RA_OF_ASC_NODE": 274.301, "ARG_OF_PERICENTER": 216.3834, "MEAN_ANOMALY": 260.0417, "EPHEMERIS_TYPE": 0, "CLASSIFICATION_TYPE": "U", "NORAD_CAT_ID": 37256, "ELEMENT_SET_NO": 999, "REV_AT_EPOCH": 5480, "BSTAR": 0, "MEAN_MOTION_DOT": -2.25e-06, "MEAN_MOTION_DDOT": 0}, "tle": {"line1": "1 37256U 10068A   25334.59440439 -.00000225  00000+0  00000+0 0  9991", "line2": "2 37256  47.9109 274.3010 0049401 216.3834 260.0417  1.00290004 54800"}}, "geometry": {"type": "Point", "coordinates": [88.62252046102284, 6.181571198919946]}}, {"type": "Feature", "properties": {"norad_id": 37384, "name": "BEIDOU-2 IGSO-3 (C08)", "group": "gnss", "lat": 38.32953552891815, "lon": 66.7180513114806, "alt_km": 35899.84086720415, "timestamp": "2025-12-02T17:49:12.269555+00:00", "meta": {"OBJECT_NAME": "BEIDOU-2 IGSO-3 (C08)", "OBJECT_ID": "2011-013A", "EPOCH": "2025-11-29T21:04:05.094336", "MEAN_MOTION": 1.00273417, "ECCENTRICITY": 0.00356655, "INCLINATION": 62.1255, "RA_OF_ASC_NODE": 42.0418, "ARG_OF_PERICENTER": 186.0158, "MEAN_ANOMALY": 264.7363, "EPHEMERIS_TYPE": 0, "CLASSIFICATION_TYPE": "U", "NORAD_CAT_ID": 37384, "ELEMENT_SET_NO": 999, "REV_AT_EPOCH": 5366, "BSTAR": 0, "MEAN_MOTION_DOT": -1.94e-06, "MEAN_MOTION_DDOT": 0}, "tle": {"line1": "1 37384U 11013A   25333.87783674 -.00000194  00000+0  00000+0 0  9990", "line2": "2 37384  62.1255  42.0418 0035665 186.0158 264.7363  1.00273417 53667"}}, "geometry": {"type": "Point", "coordinates": [66.7180513114806, 38.32953552891815]}}, {"type": "Feature", "properties": {"norad_id": 37605, "name": "GSAT-8 (GAGAN/PRN 127)", "group": "gnss", "lat": -1.217739815057015, "lon": 34.2827705413097, "alt_km": 35811.93366373511, "timestamp": "2025-12-02T17:49:12.269568+00:00", "meta": {"OBJECT_NAME": "GSAT-8 (GAGAN/PRN 127)", "OBJECT_ID": "2011-022A", "EPOCH": "2025-12-02T03:46:25.790016", "MEAN_MOTION": 1.00272305, "ECCENTRICITY": 0.00089384, "INCLINATION": 1.6199, "RA_OF_ASC_NODE": 84.307, "ARG_OF_PERICENTER": 176.8932, "MEAN_ANOMALY": 281.75, "EPHEMERIS_TYPE": 0, "CLASSIFICATION_TYPE": "U", "NORAD_CAT_ID": 37605, "ELEMENT_SET_NO": 999, "REV_AT_EPOCH": 5124, "BSTAR": 0, "MEAN_MOTION_DOT": 1.05e-06, "MEAN_MOTION_DDOT": 0}, "tle": {"line1": "1 37605U 11022A   25336.15724294  .00000105  00000+0  00000+0 0  9994", "line2": "2 37605   1.6199  84.3070 0008938 176.8932 281.7500  1.00272305 51240"}}, "geometry": {"type": "Point", "coordinates": [34.2827705413097, -1.217739815057015]}}, {"type": "Feature", "properties": {"norad_id": 37763, "name": "BEIDOU-2 IGSO-4 (C09)", "group": "gnss", "lat": -54.39110601353001, "lon": 71.75636989238188, "alt_km": 35280.00360886686, "timestamp": "2025-12-02T17:49:12.269581+00:00", "meta": {"OBJECT_NAME": "BEIDOU-2 IGSO-4 (C09)", "OBJECT_ID": "2011-038A", "EPOCH": "2025-11-28T12:37:32.473920", "MEAN_MOTION": 1.00284857, "ECCENTRICITY": 0.01486323, "INCLINATION": 54.5801, "RA_OF_ASC_NODE": 167.4746, "ARG_OF_PERICENTER": 230.1967, "MEAN_ANOMALY": 313.2933, "EPHEMERIS_TYPE": 0, "CLASSIFICATION_TYPE": "U", "NORAD_CAT_ID": 37763, "ELEMENT_SET_NO": 999, "REV_AT_EPOCH": 5263, "BSTAR": 0, "MEAN_MOTION_DOT": 8.5e-07, "MEAN_MOTION_DDOT": 0}, "tle": {"line1": "1 37763U 11038A   25332.52607030  .00000085  00000+0  00000+0 0  9998", "line2": "2 37763  54.5801 167.4746 0148632 230.1967 313.2933  1.00284857 52633"}}, "geometry": {"type": "Point", "coordinates": [71.75636989238188, -54.39110601353001]}}, {"type": "Feature", "properties": {"norad_id": 37846, "name": "GSAT0101 (GALILEO-PFM)", "group": "gnss", "lat": -49.794233573164966, "lon": -142.78691355851478, "alt_km": 23224.06636413221, "timestamp": "2025-12-02T17:49:12.269595+00:00", "meta": {"OBJECT_NAME": "GSAT0101 (GALILEO-PFM)", "OBJECT_ID": "2011-060A", "EPOCH": "2025-11-24T03:07:29.832960", "MEAN_MOTION": 1.70475782, "ECCENTRICITY": 0.00025776, "INCLINATION": 57.0574, "RA_OF_ASC_NODE": 347.3256, "ARG_OF_PERICENTER": 308.2281, "MEAN_ANOMALY": 51.7929, "EPHEMERIS_TYPE": 0, "CLASSIFICATION_TYPE": "U", "NORAD_CAT_ID": 37846, "ELEMENT_SET_NO": 999, "REV_AT_EPOCH": 8762, "BSTAR": 0, "MEAN_MOTION_DOT": -6.3e-07, "MEAN_MOTION_DDOT": 0}, "tle": {"line1": "1 37846U 11060A   25328.13020640 -.00000063  00000+0  00000+0 0  9990", "line2": "2 37846  57.0574 347.3256 0002577 308.2281  51.7929  1.70475782 87620"}}, "geometry": {"type": "Point", "coordinates": [-142.78691355851478, -49.794233573164966]}}, {"type": "Feature", "properties": {"norad_id": 37847, "name": "GSAT0102 (GALILEO-FM2)", "group": "gnss", "lat": -51.563903908627225, "lon": -67.70626796148069, "alt_km": 23214.113313484297, "timestamp": "2025-12-02T17:49:12.269607+00:00", "meta": {"OBJECT_NAME": "GSAT0102 (GALILEO-FM2)", "OBJECT_ID": "2011-060B", "EPOCH": "2025-12-02T06:27:38.703744", "MEAN_MOTION": 1.70475743, "ECCENTRICITY": 0.0004752, "INCLINATION": 57.0559, "RA_OF_ASC_NODE": 347.1049, "ARG_OF_PERICENTER": 306.1199, "MEAN_ANOMALY": 54.4344, "EPHEMERIS_TYPE": 0, "CLASSIFICATION_TYPE": "U", "NORAD_CAT_ID": 37847, "ELEMENT_SET_NO": 999, "REV_AT_EPOCH": 8777, "BSTAR": 0, "MEAN_MOTION_DOT": -6.2e-07, "MEAN_MOTION_DDOT": 0}, "tle": {"line1": "1 37847U 11060B   25336.26919796 -.00000062  00000+0  00000+0 0  9992", "line2": "2 37847  57.0559 347.1049 0004752 306.1199  54.4344  1.70475743 87778"}}, "geometry": {"type": "Point", "coordinates": [-67.70626796148069, -51.563903908627225]}}]}